{"spkid": "50092220", "covariance": {"epoch": "2457983.5", "data": [["2.301352300951939E-15", "-3.897872814644823E-15", "-1.874031786554686E-13", "-1.114818538269156E-12", "4.721098758128522E-13", "-3.047902929728321E-13"], ["-3.897872814644823E-15", "6.602353164542992E-15", "3.254677247844237E-13", "1.882710464963416E-12", "-7.886089345270176E-13", "5.14309389297113E-13"], ["-1.874031786554686E-13", "3.254677247844237E-13", "3.806395921200855E-10", "-1.69974124482367E-11", "3.885218628693564E-10", "-2.988407582193413E-11"], ["-1.114818538269156E-12", "1.882710464963416E-12", "-1.69974124482367E-11", "1.612951312274166E-9", "-1.351294949511054E-9", "2.903372246895378E-10"], ["4.721098758128522E-13", "-7.886089345270176E-13", "3.885218628693564E-10", "-1.351294949511054E-9", "1.568456798258863E-9", "-2.419680948754046E-10"], ["-3.047902929728321E-13", "5.14309389297113E-13", "-2.988407582193413E-11", "2.903372246895378E-10", "-2.419680948754046E-10", "8.715006192235249E-11"]], "elements": [{"label": "e", "value": ".4019622299106125", "title": "eccentricity", "units": null, "sigma": 4.79724118734084e-08, "name": "e"}, {"value": "1.017769117435734", "title": "perihelion distance", "units": "au", "name": "q", "sigma": 8.12548654822774e-08, "label": "q"}, {"units": "TDB", "value": "2458384.336400813282", "title": "time of perihelion passage", "sigma": 1.95099869841086e-05, "name": "tp", "label": "tp"}, {"label": "node", "value": "3.390199030929782", "title": "longitude of the ascending node", "units": "deg", "sigma": 4.01615651123579e-05, "name": "om"}, {"label": "peri", "sigma": 3.96037472754645e-05, "name": "w", "units": "deg", "title": "argument of perihelion", "value": "1.104736977995066"}, {"label": "i", "units": "deg", "title": "inclination", "value": "4.858969243788927", "name": "i", "sigma": 9.33541975073175e-06}], "labels": ["e", "q", "tp", "node", "peri", "i"]}, "elements": [{"units": null, "title": "eccentricity", "value": ".4011543641588775", "sigma": "4.5372E-8", "name": "e", "label": "e"}, {"label": "a", "name": "a", "sigma": "8.1219E-9", "value": "1.699108037198049", "title": "semi-major axis", "units": "au"}, {"name": "q", "sigma": "8.1496E-8", "value": "1.017503432898627", "title": "perihelion distance", "units": "au", "label": "q"}, {"title": "inclination; angle with respect to x-y ecliptic plane", "value": "4.865991641250132", "units": "deg", "sigma": "9.2856E-6", "name": "i", "label": "i"}, {"label": "node", "sigma": "4.0442E-5", "name": "om", "title": "longitude of the ascending node", "value": "3.239440737667947", "units": "deg"}, {"label": "peri", "name": "w", "sigma": "3.9971E-5", "units": "deg", "value": "1.328668650389016", "title": "argument of perihelion"}, {"title": "mean anomaly", "value": "173.0269376700003", "units": "deg", "sigma": "1.2326E-5", "name": "ma", "label": "M"}, {"label": "tp", "units": "TDB", "title": "time of perihelion passage", "value": "2460811.686676175988", "name": "tp", "sigma": "2.5803E-5"}, {"label": "period", "title": "sidereal orbital period", "value": "808.9653464456643", "units": "d", "sigma": "5.8004E-6", "name": "per"}, {"name": "n", "sigma": "3.1908E-9", "value": ".4450128816787087", "title": "mean motion", "units": "deg/d", "label": "n"}, {"name": "ad", "sigma": "1.138E-8", "units": "au", "title": "aphelion distance", "value": "2.380712641497471", "label": "Q"}], "epoch": "2461200.5"}